[
    {
        "CCSDS_OMM_VERS": "3.0",
        "COMMENT": "GENERATED VIA SPACE-TRACK.ORG API",
        "CREATION_DATE": "2025-03-02T18:08:23",
        "ORIGINATOR": "18 SPCS",
        "OBJECT_NAME": "COSMOS 2522 (GLONASS)",
        "OBJECT_ID": "2017-055A",
        "CENTER_NAME": "EARTH",
        "REF_FRAME": "TEME",
        "TIME_SYSTEM": "UTC",
        "MEAN_ELEMENT_THEORY": "SGP4",
        "EPOCH": "2025-03-02T01:09:36.171648",
        "MEAN_MOTION": "2.13101717",
        "ECCENTRICITY": "0.00065620",
        "INCLINATION": "64.0798",
        "RA_OF_ASC_NODE": "207.9606",
        "ARG_OF_PERICENTER": "228.4493",
        "MEAN_ANOMALY": "131.4585",
        "EPHEMERIS_TYPE": "0",
        "CLASSIFICATION_TYPE": "U",
        "NORAD_CAT_ID": "42939",
        "ELEMENT_SET_NO": "999",
        "REV_AT_EPOCH": "5791",
        "BSTAR": "0.00000000000000",
        "MEAN_MOTION_DOT": "0.00000052",
        "MEAN_MOTION_DDOT": "0.0000000000000",
        "SEMIMAJOR_AXIS": "25508.047",
        "PERIOD": "675.734",
        "APOAPSIS": "19146.650",
        "PERIAPSIS": "19113.174",
        "OBJECT_TYPE": "PAYLOAD",
        "RCS_SIZE": "LARGE",
        "COUNTRY_CODE": "CIS",
        "LAUNCH_DATE": "2017-09-22",
        "SITE": "PKMTR",
        "DECAY_DATE": null,
        "FILE": "4657142",
        "GP_ID": "282086983",
        "TLE_LINE0": "0 COSMOS 2522 (GLONASS)",
        "TLE_LINE1": "1 42939U 17055A   25061.04833532  .00000052  00000-0  00000-0 0  9994",
        "TLE_LINE2": "2 42939  64.0798 207.9606 0006562 228.4493 131.4585  2.13101717 57916"
    }
]